[{"OBJECT_NAME":"ONEWEB-0229","OBJECT_ID":"2021-045N","EPOCH":"2026-03-09T15:42:56.562912","MEAN_MOTION":13.15548303,"ECCENTRICITY":0.0001526,"INCLINATION":87.8945,"RA_OF_ASC_NODE":279.0582,"ARG_OF_PERICENTER":93.6716,"MEAN_ANOMALY":266.4589,"EPHEMERIS_TYPE":0,"CLASSIFICATION_TYPE":"U","NORAD_CAT_ID":48779,"ELEMENT_SET_NO":999,"REV_AT_EPOCH":23132,"BSTAR":0.00040343,"MEAN_MOTION_DOT":1.65e-6,"MEAN_MOTION_DDOT":0},{"OBJECT_NAME":"ONEWEB-0228","OBJECT_ID":"2021-045P","EPOCH":"2026-03-09T20:10:06.526848","MEAN_MOTION":13.15547002,"ECCENTRICITY":0.000165,"INCLINATION":87.8947,"RA_OF_ASC_NODE":279.0082,"ARG_OF_PERICENTER":92.7092,"MEAN_ANOMALY":267.4227,"EPHEMERIS_TYPE":0,"CLASSIFICATION_TYPE":"U","NORAD_CAT_ID":48780,"ELEMENT_SET_NO":999,"REV_AT_EPOCH":23126,"BSTAR":-0.00044863,"MEAN_MOTION_DOT":-1.56e-6,"MEAN_MOTION_DDOT":0},{"OBJECT_NAME":"ONEWEB-0232","OBJECT_ID":"2021-045Q","EPOCH":"2026-03-09T15:54:20.576160","MEAN_MOTION":13.15546909,"ECCENTRICITY":0.0001594,"INCLINATION":87.8956,"RA_OF_ASC_NODE":279.0428,"ARG_OF_PERICENTER":90.3888,"MEAN_ANOMALY":269.7425,"EPHEMERIS_TYPE":0,"CLASSIFICATION_TYPE":"U","NORAD_CAT_ID":48781,"ELEMENT_SET_NO":999,"REV_AT_EPOCH":23156,"BSTAR":0.00027101,"MEAN_MOTION_DOT":1.15e-6,"MEAN_MOTION_DDOT":0},{"OBJECT_NAME":"ONEWEB-0231","OBJECT_ID":"2021-045R","EPOCH":"2026-03-09T15:22:24.775392","MEAN_MOTION":13.15548032,"ECCENTRICITY":0.0001777,"INCLINATION":87.8939,"RA_OF_ASC_NODE":279.0747,"ARG_OF_PERICENTER":97.7344,"MEAN_ANOMALY":262.3988,"EPHEMERIS_TYPE":0,"CLASSIFICATION_TYPE":"U","NORAD_CAT_ID":48782,"ELEMENT_SET_NO":999,"REV_AT_EPOCH":23125,"BSTAR":0.00033447,"MEAN_MOTION_DOT":1.39e-6,"MEAN_MOTION_DDOT":0},{"OBJECT_NAME":"ONEWEB-0234","OBJECT_ID":"2021-045S","EPOCH":"2026-03-09T19:55:59.946816","MEAN_MOTION":13.15549876,"ECCENTRICITY":0.0002231,"INCLINATION":87.8938,"RA_OF_ASC_NODE":279.014,"ARG_OF_PERICENTER":73.1956,"MEAN_ANOMALY":286.9419,"EPHEMERIS_TYPE":0,"CLASSIFICATION_TYPE":"U","NORAD_CAT_ID":48783,"ELEMENT_SET_NO":999,"REV_AT_EPOCH":23141,"BSTAR":-0.00048579,"MEAN_MOTION_DOT":-1.7e-6,"MEAN_MOTION_DDOT":0},{"OBJECT_NAME":"ONEWEB-0238","OBJECT_ID":"2021-045T","EPOCH":"2026-03-09T14:27:50.964480","MEAN_MOTION":13.15547356,"ECCENTRICITY":0.000193,"INCLINATION":87.8938,"RA_OF_ASC_NODE":279.0532,"ARG_OF_PERICENTER":79.3293,"MEAN_ANOMALY":280.8055,"EPHEMERIS_TYPE":0,"CLASSIFICATION_TYPE":"U","NORAD_CAT_ID":48784,"ELEMENT_SET_NO":999,"REV_AT_EPOCH":23128,"BSTAR":-7.5189e-5,"MEAN_MOTION_DOT":-1.5e-7,"MEAN_MOTION_DDOT":0},{"OBJECT_NAME":"ONEWEB-0240","OBJECT_ID":"2021-045U","EPOCH":"2026-03-09T14:58:28.098912","MEAN_MOTION":13.1554678,"ECCENTRICITY":0.0001907,"INCLINATION":87.8957,"RA_OF_ASC_NODE":279.0506,"ARG_OF_PERICENTER":95.4095,"MEAN_ANOMALY":264.7253,"EPHEMERIS_TYPE":0,"CLASSIFICATION_TYPE":"U","NORAD_CAT_ID":48785,"ELEMENT_SET_NO":999,"REV_AT_EPOCH":23131,"BSTAR":-0.00017506,"MEAN_MOTION_DOT":-5.3e-7,"MEAN_MOTION_DDOT":0},{"OBJECT_NAME":"ONEWEB-0246","OBJECT_ID":"2021-045V","EPOCH":"2026-03-09T14:50:27.839328","MEAN_MOTION":13.15547783,"ECCENTRICITY":0.0001521,"INCLINATION":87.8949,"RA_OF_ASC_NODE":279.0614,"ARG_OF_PERICENTER":93.2608,"MEAN_ANOMALY":266.8696,"EPHEMERIS_TYPE":0,"CLASSIFICATION_TYPE":"U","NORAD_CAT_ID":48786,"ELEMENT_SET_NO":999,"REV_AT_EPOCH":23118,"BSTAR":-0.00030531,"MEAN_MOTION_DOT":-1.02e-6,"MEAN_MOTION_DDOT":0},{"OBJECT_NAME":"ONEWEB-0210","OBJECT_ID":"2021-045W","EPOCH":"2026-03-09T14:13:57.264960","MEAN_MOTION":13.15547753,"ECCENTRICITY":0.0001494,"INCLINATION":87.895,"RA_OF_ASC_NODE":279.0628,"ARG_OF_PERICENTER":124.2805,"MEAN_ANOMALY":235.8467,"EPHEMERIS_TYPE":0,"CLASSIFICATION_TYPE":"U","NORAD_CAT_ID":48787,"ELEMENT_SET_NO":999,"REV_AT_EPOCH":23122,"BSTAR":-0.00012872,"MEAN_MOTION_DOT":-3.6e-7,"MEAN_MOTION_DDOT":0},{"OBJECT_NAME":"ONEWEB-0214","OBJECT_ID":"2021-045X","EPOCH":"2026-03-09T19:55:04.821024","MEAN_MOTION":13.15547664,"ECCENTRICITY":0.0001326,"INCLINATION":87.8949,"RA_OF_ASC_NODE":279.0117,"ARG_OF_PERICENTER":102.1805,"MEAN_ANOMALY":257.9473,"EPHEMERIS_TYPE":0,"CLASSIFICATION_TYPE":"U","NORAD_CAT_ID":48788,"ELEMENT_SET_NO":999,"REV_AT_EPOCH":23122,"BSTAR":-0.00046398,"MEAN_MOTION_DOT":-1.62e-6,"MEAN_MOTION_DDOT":0},{"OBJECT_NAME":"ONEWEB-0221","OBJECT_ID":"2021-045Y","EPOCH":"2026-03-09T20:05:20.413248","MEAN_MOTION":13.15547958,"ECCENTRICITY":0.0001763,"INCLINATION":87.8947,"RA_OF_ASC_NODE":279.0202,"ARG_OF_PERICENTER":95.361,"MEAN_ANOMALY":264.7722,"EPHEMERIS_TYPE":0,"CLASSIFICATION_TYPE":"U","NORAD_CAT_ID":48789,"ELEMENT_SET_NO":999,"REV_AT_EPOCH":23131,"BSTAR":-0.00028572,"MEAN_MOTION_DOT":-9.5e-7,"MEAN_MOTION_DDOT":0},{"OBJECT_NAME":"ONEWEB-0213","OBJECT_ID":"2021-045Z","EPOCH":"2026-03-09T19:49:21.941760","MEAN_MOTION":13.15548944,"ECCENTRICITY":0.0001651,"INCLINATION":87.8948,"RA_OF_ASC_NODE":279.0263,"ARG_OF_PERICENTER":100.3738,"MEAN_ANOMALY":259.7578,"EPHEMERIS_TYPE":0,"CLASSIFICATION_TYPE":"U","NORAD_CAT_ID":48790,"ELEMENT_SET_NO":999,"REV_AT_EPOCH":23137,"BSTAR":-1.668e-5,"MEAN_MOTION_DOT":7.0e-8,"MEAN_MOTION_DDOT":0},{"OBJECT_NAME":"ONEWEB-0212","OBJECT_ID":"2021-045AA","EPOCH":"2026-03-09T15:37:14.379168","MEAN_MOTION":13.1554815,"ECCENTRICITY":0.0001634,"INCLINATION":87.8947,"RA_OF_ASC_NODE":279.056,"ARG_OF_PERICENTER":87.7955,"MEAN_ANOMALY":272.3363,"EPHEMERIS_TYPE":0,"CLASSIFICATION_TYPE":"U","NORAD_CAT_ID":48791,"ELEMENT_SET_NO":999,"REV_AT_EPOCH":23134,"BSTAR":0.00041604,"MEAN_MOTION_DOT":1.69e-6,"MEAN_MOTION_DDOT":0},{"OBJECT_NAME":"ONEWEB-0227","OBJECT_ID":"2021-045AB","EPOCH":"2026-03-09T15:36:06.167232","MEAN_MOTION":13.15548176,"ECCENTRICITY":0.0001678,"INCLINATION":87.894,"RA_OF_ASC_NODE":279.0589,"ARG_OF_PERICENTER":91.595,"MEAN_ANOMALY":268.5373,"EPHEMERIS_TYPE":0,"CLASSIFICATION_TYPE":"U","NORAD_CAT_ID":48792,"ELEMENT_SET_NO":999,"REV_AT_EPOCH":23129,"BSTAR":0.00052032,"MEAN_MOTION_DOT":2.09e-6,"MEAN_MOTION_DDOT":0},{"OBJECT_NAME":"ONEWEB-0226","OBJECT_ID":"2021-045AC","EPOCH":"2026-03-09T15:26:58.251264","MEAN_MOTION":13.15547975,"ECCENTRICITY":0.0001552,"INCLINATION":87.8937,"RA_OF_ASC_NODE":279.0687,"ARG_OF_PERICENTER":101.9841,"MEAN_ANOMALY":258.1463,"EPHEMERIS_TYPE":0,"CLASSIFICATION_TYPE":"U","NORAD_CAT_ID":48793,"ELEMENT_SET_NO":999,"REV_AT_EPOCH":23126,"BSTAR":0.00039288,"MEAN_MOTION_DOT":1.61e-6,"MEAN_MOTION_DDOT":0},{"OBJECT_NAME":"ONEWEB-0224","OBJECT_ID":"2021-045AD","EPOCH":"2026-03-09T14:34:31.094112","MEAN_MOTION":13.15549294,"ECCENTRICITY":0.0002496,"INCLINATION":87.8939,"RA_OF_ASC_NODE":279.1122,"ARG_OF_PERICENTER":87.3157,"MEAN_ANOMALY":272.8258,"EPHEMERIS_TYPE":0,"CLASSIFICATION_TYPE":"U","NORAD_CAT_ID":48794,"ELEMENT_SET_NO":999,"REV_AT_EPOCH":23118,"BSTAR":-0.00019694,"MEAN_MOTION_DOT":-6.1e-7,"MEAN_MOTION_DDOT":0},{"OBJECT_NAME":"ONEWEB-0233","OBJECT_ID":"2021-045AE","EPOCH":"2026-03-09T14:41:08.279232","MEAN_MOTION":13.15548169,"ECCENTRICITY":0.0001829,"INCLINATION":87.8935,"RA_OF_ASC_NODE":279.1202,"ARG_OF_PERICENTER":96.7927,"MEAN_ANOMALY":263.3411,"EPHEMERIS_TYPE":0,"CLASSIFICATION_TYPE":"U","NORAD_CAT_ID":48795,"ELEMENT_SET_NO":999,"REV_AT_EPOCH":23120,"BSTAR":-0.00031869,"MEAN_MOTION_DOT":-1.07e-6,"MEAN_MOTION_DDOT":0},{"OBJECT_NAME":"ONEWEB-0190","OBJECT_ID":"2021-045AF","EPOCH":"2026-03-09T19:51:38.896992","MEAN_MOTION":13.15548493,"ECCENTRICITY":0.0001929,"INCLINATION":87.8937,"RA_OF_ASC_NODE":279.0378,"ARG_OF_PERICENTER":112.8585,"MEAN_ANOMALY":247.2749,"EPHEMERIS_TYPE":0,"CLASSIFICATION_TYPE":"U","NORAD_CAT_ID":48796,"ELEMENT_SET_NO":999,"REV_AT_EPOCH":23130,"BSTAR":-0.00031694,"MEAN_MOTION_DOT":-1.06e-6,"MEAN_MOTION_DDOT":0},{"OBJECT_NAME":"ONEWEB-0236","OBJECT_ID":"2021-045AG","EPOCH":"2026-03-09T20:16:44.943168","MEAN_MOTION":13.15547407,"ECCENTRICITY":0.0001637,"INCLINATION":87.8937,"RA_OF_ASC_NODE":279.0458,"ARG_OF_PERICENTER":84.3963,"MEAN_ANOMALY":275.7354,"EPHEMERIS_TYPE":0,"CLASSIFICATION_TYPE":"U","NORAD_CAT_ID":48797,"ELEMENT_SET_NO":999,"REV_AT_EPOCH":23119,"BSTAR":-0.00037742,"MEAN_MOTION_DOT":-1.29e-6,"MEAN_MOTION_DDOT":0},{"OBJECT_NAME":"ONEWEB-0248","OBJECT_ID":"2021-045AH","EPOCH":"2026-03-09T15:06:26.476704","MEAN_MOTION":13.15550285,"ECCENTRICITY":0.0002034,"INCLINATION":87.8946,"RA_OF_ASC_NODE":279.0622,"ARG_OF_PERICENTER":99.2247,"MEAN_ANOMALY":260.9114,"EPHEMERIS_TYPE":0,"CLASSIFICATION_TYPE":"U","NORAD_CAT_ID":48798,"ELEMENT_SET_NO":999,"REV_AT_EPOCH":23132,"BSTAR":4.9805e-5,"MEAN_MOTION_DOT":3.2e-7,"MEAN_MOTION_DDOT":0},{"OBJECT_NAME":"ONEWEB-0225","OBJECT_ID":"2021-045AJ","EPOCH":"2026-03-09T13:48:51.438240","MEAN_MOTION":13.15547783,"ECCENTRICITY":0.0001857,"INCLINATION":87.8936,"RA_OF_ASC_NODE":279.0891,"ARG_OF_PERICENTER":108.396,"MEAN_ANOMALY":251.7373,"EPHEMERIS_TYPE":0,"CLASSIFICATION_TYPE":"U","NORAD_CAT_ID":48799,"ELEMENT_SET_NO":999,"REV_AT_EPOCH":23132,"BSTAR":0.00038828,"MEAN_MOTION_DOT":1.59e-6,"MEAN_MOTION_DDOT":0},{"OBJECT_NAME":"ONEWEB-0215","OBJECT_ID":"2021-045AK","EPOCH":"2026-03-09T14:55:02.250912","MEAN_MOTION":13.1554787,"ECCENTRICITY":0.0002065,"INCLINATION":87.8948,"RA_OF_ASC_NODE":279.0524,"ARG_OF_PERICENTER":109.2253,"MEAN_ANOMALY":250.91,"EPHEMERIS_TYPE":0,"CLASSIFICATION_TYPE":"U","NORAD_CAT_ID":48800,"ELEMENT_SET_NO":999,"REV_AT_EPOCH":23120,"BSTAR":-7.7789e-5,"MEAN_MOTION_DOT":-1.6e-7,"MEAN_MOTION_DDOT":0},{"OBJECT_NAME":"ONEWEB-0216","OBJECT_ID":"2021-045AL","EPOCH":"2026-03-09T15:08:43.258272","MEAN_MOTION":13.15551593,"ECCENTRICITY":0.0001484,"INCLINATION":87.894,"RA_OF_ASC_NODE":279.0704,"ARG_OF_PERICENTER":90.9569,"MEAN_ANOMALY":269.1731,"EPHEMERIS_TYPE":0,"CLASSIFICATION_TYPE":"U","NORAD_CAT_ID":48801,"ELEMENT_SET_NO":999,"REV_AT_EPOCH":23121,"BSTAR":0.00013608,"MEAN_MOTION_DOT":6.4e-7,"MEAN_MOTION_DDOT":0}]
